IRIDIUM 57 [-]          
1 25273U 98019B   24027.95683390  .00000531  00000+0  17959-3 0  9996
2 25273  86.3987 357.2565 0002195  87.7405 272.4043 14.35060781352167
IRIDIUM 63 [-]          
1 25286U 98021B   24027.82374341  .00000698  00000+0  23552-3 0  9992
2 25286  86.3989 294.2478 0002268  88.6754 271.4702 14.35585308351172
IRIDIUM 69 [-]          
1 25319U 98026A   24028.16611744  .00000920  00000+0  28738-3 0  9992
2 25319  86.4005 308.9102 0000568 181.1855 178.9343 14.39776472350469
IRIDIUM 71 [-]          
1 25320U 98026B   24027.85013118  .00000829  00000+0  25678-3 0  9998
2 25320  86.3991 303.8393 0001812  22.9799 337.1480 14.40097937350692
IRIDIUM 73 [-]          
1 25344U 98032C   24027.73343764  .00000878  00000+0  22049-3 0  9994
2 25344  86.4395 261.5174 0001461  91.9201 268.2172 14.50265168357129
IRIDIUM 82 [-]          
1 25467U 98051A   24028.40649303  .00019123  00000+0  10545-2 0  9994
2 25467  86.3959 352.2379 0139775  17.4159 343.1797 15.05777352347275
IRIDIUM 2 [-]           
1 25527U 98066A   24028.49224602  .00053672  00000+0  87217-3 0  9995
2 25527  85.5132  33.1364 0007230 118.5181 241.6807 15.52469299385404
